OBJECT_NAME,OBJECT_ID,EPOCH,MEAN_MOTION,ECCENTRICITY,INCLINATION,RA_OF_ASC_NODE,ARG_OF_PERICENTER,MEAN_ANOMALY,EPHEMERIS_TYPE,CLASSIFICATION_TYPE,NORAD_CAT_ID,ELEMENT_SET_NO,REV_AT_EPOCH,BSTAR,MEAN_MOTION_DOT,MEAN_MOTION_DDOT
IRIDIUM 135,2017-083A,2026-06-09T13:07:23.145888,14.34217644,.00020731,86.3959,325.2109,91.7442,268.3991,0,U,43070,999,44305,-.4271128E-5,.8E-7,0
IRIDIUM 138,2017-083B,2026-06-09T12:03:27.239040,14.34217922,.0002392,86.3974,324.9234,88.2931,271.8539,0,U,43071,999,44303,.44108263E-4,.143E-5,0
IRIDIUM 116,2017-083C,2026-06-09T12:58:15.140064,14.34217693,.00018821,86.3958,325.1993,95.0586,265.0824,0,U,43072,999,44307,.36100152E-4,.121E-5,0
IRIDIUM 130,2017-083D,2026-06-09T12:12:35.066016,14.34217990,.00019584,86.3967,325.4871,88.7751,271.3669,0,U,43073,999,44301,-.695586E-6,.18E-6,0
IRIDIUM 151,2017-083E,2026-06-09T13:16:31.162944,14.34217671,.00021248,86.3963,325.2517,91.6806,268.4634,0,U,43074,999,44304,.13498366E-4,.58E-6,0
IRIDIUM 134,2017-083F,2026-06-09T12:30:51.151104,14.34217598,.00019807,86.3957,325.2728,89.5502,270.5920,0,U,43075,999,44300,-.9180731E-5,-.6E-7,0
IRIDIUM 137,2017-083G,2026-06-09T12:49:07.157568,14.34217428,.0002035,86.3962,325.3600,103.0716,257.0707,0,U,43076,999,44307,.5513274E-5,.35E-6,0
IRIDIUM 141,2017-083H,2026-06-09T12:39:59.211360,14.34217521,.00022217,86.3960,325.1939,90.9170,269.2281,0,U,43077,999,44307,.3938673E-5,.31E-6,0
IRIDIUM 153,2017-083J,2026-06-09T09:50:39.434496,14.34217576,.00022178,86.3954,293.7232,90.7621,269.3829,0,U,43078,999,44416,-.2649688E-5,.12E-6,0
IRIDIUM 131,2017-083K,2026-06-09T12:21:43.171200,14.34217231,.00020914,86.3961,325.3846,91.8882,268.2553,0,U,43079,999,44300,-.1736016E-4,-.29E-6,0
IRIDIUM 144,2018-030A,2026-06-09T08:19:19.386624,14.34217275,.00019391,86.3949,293.6790,95.1708,264.9709,0,U,43249,999,42901,-.18822963E-4,-.33E-6,0
IRIDIUM 149,2018-030B,2026-06-09T08:28:27.419232,14.34217618,.00021154,86.3949,293.6435,93.4568,266.6870,0,U,43250,999,42903,-.759634E-6,.18E-6,0
IRIDIUM 157,2018-030C,2026-06-09T10:36:19.432512,14.34217734,.00021916,86.3953,293.6591,94.1703,265.9743,0,U,43251,999,42902,.5708549E-5,.36E-6,0
IRIDIUM 140,2018-030D,2026-06-09T11:03:43.388640,14.34217586,.00020346,86.3952,293.6640,92.8261,267.3168,0,U,43252,999,42908,-.2211777E-5,.14E-6,0
IRIDIUM 145,2018-030E,2026-06-09T10:45:27.269856,14.34218193,.00018975,86.3952,293.6413,97.5061,262.6351,0,U,43253,999,42901,.37147893E-4,.124E-5,0
IRIDIUM 146,2018-030F,2026-06-09T08:37:35.411232,14.34217680,.00020923,86.3953,293.6906,95.7827,264.3608,0,U,43254,999,42901,.4136213E-5,.31E-6,0
IRIDIUM 148,2018-030G,2026-06-09T11:12:51.390144,14.34217369,.0002089,86.3953,293.6888,97.3061,262.8372,0,U,43255,999,42906,-.8442028E-5,-.4E-7,0
IRIDIUM 142,2018-030H,2026-06-09T10:27:11.327328,14.34218034,.00020254,86.3952,293.5912,96.2127,263.9300,0,U,43256,999,42902,.14361038E-4,.6E-6,0
IRIDIUM 150,2018-030J,2026-06-09T09:41:31.403616,14.34217849,.00021394,86.3956,293.7206,92.4579,267.6862,0,U,43257,999,42904,.7773117E-5,.42E-6,0
IRIDIUM 143,2018-030K,2026-06-09T10:54:35.395776,14.34216912,.00019387,86.3955,293.7917,94.6140,265.5277,0,U,43258,999,42898,-.60680412E-4,-.15E-5,0
IRIDIUM 161,2018-047C,2026-06-09T13:01:21.055584,14.43278698,.00025594,86.4482,91.6672,87.7668,272.3826,0,U,43478,999,42403,.8058701E-4,.291E-5,0
IRIDIUM 152,2018-047D,2026-06-09T08:34:50.286144,14.34217727,.00023737,86.3958,91.6057,84.0264,276.1202,0,U,43479,999,42136,-.395693E-6,.19E-6,0
IRIDIUM 147,2018-047E,2026-06-09T12:04:54.248160,14.34217690,.00021375,86.3959,91.5497,84.6699,275.4741,0,U,43480,999,42138,.14239765E-4,.6E-6,0
IRIDIUM 110,2018-047F,2026-06-09T12:14:02.339520,14.34217440,.00024861,86.3960,91.6388,85.8565,274.2915,0,U,43481,999,42137,-.7276821E-5,-.1E-7,0
IRIDIUM 162,2018-047G,2026-06-09T12:52:17.027616,14.43277376,.00023445,86.4479,91.5610,83.3219,276.8249,0,U,43482,999,42402,.83515301E-4,.301E-5,0
IRIDIUM 160,2018-061A,2026-06-09T10:56:02.479200,14.34217610,.00022554,86.3967,60.0300,86.3827,273.7627,0,U,43569,999,41226,-.6617026E-5,.1E-7,0
IRIDIUM 166,2018-061B,2026-06-09T04:50:42.622944,14.34215535,.00024868,86.3990,60.0824,83.0339,277.1140,0,U,43570,999,41225,.55461927E-4,.175E-5,0
IRIDIUM 158,2018-061C,2026-06-09T05:45:30.452256,14.34217659,.0002257,86.3965,60.0807,82.5382,277.6071,0,U,43571,999,41222,.2733E-4,.96E-6,0
IRIDIUM 165,2018-061D,2026-06-09T11:23:26.141568,14.34216464,.00020826,86.3969,60.0288,85.8848,274.2585,0,U,43572,999,41228,.46973507E-4,.151E-5,0
IRIDIUM 155,2018-061E,2026-06-09T10:28:38.456544,14.34217736,.00021631,86.3962,59.9140,82.5540,277.5902,0,U,43573,999,41224,-.80701E-7,.2E-6,0
